INNOSAT 3 (RS92S0)      
1 64894U 25155U   26063.84001110  .00046919  00000+0  13232-2 0  9992
2 64894  97.4421  33.4763 0005540 159.6515 200.4950 15.36247460 64909
GEOSCAN 3 (RS92S3)      
1 64893U 25155T   26063.85677050  .00027068  00000+0  89178-3 0  9991
2 64893  97.4450  32.8785 0005879 169.8425 190.2936 15.31428889 64861
GEOSCAN 4 (RS92S4)      
1 64892U 25155S   26063.80933686  .00022834  00000+0  78348-3 0  9998
2 64892  97.4457  32.6493 0006261 170.9318 189.2037 15.30145279 64847
GEOSCAN 5 (RS92S5)      
1 64891U 25155R   26063.81662570  .00021917  00000+0  75460-3 0  9992
2 64891  97.4454  32.6331 0006297 170.3730 189.7632 15.30042377 64846
GEOSCAN 2 (RS92S2)      
1 64890U 25155Q   26063.85367468  .00018404  00000+0  66403-3 0  9997
2 64890  97.4455  32.4201 0007847 156.3031 203.8572 15.28537482 64833
239ALFEROV (RS61S)      
1 64881U 25155F   26063.80540339  .00023139  00000+0  80435-3 0  9994
2 64881  97.4461  32.5257 0007630 167.7145 192.4282 15.29709743 64837
INNOSAT 16 (RS92S7)     
1 64878U 25155C   26063.85829573  .00010695  00000+0  44246-3 0  9998
2 64878  97.4459  31.4891 0010396 182.2179 177.9014 15.24088940 64772
GEOSCAN 6 (RS92S6)      
1 64879U 25155D   26063.86873478  .00017434  00000+0  64300-3 0  9994
2 64879  97.4457  32.2557 0008029 170.0334 190.1066 15.27823955 64823
GEOSCAN 1 (RS92S1)      
1 64880U 25155E   26063.84036701  .00018425  00000+0  67088-3 0  9991
2 64880  97.4457  32.2981 0007978 169.9587 190.1814 15.28235969 64829
COLIBRI-S (RS67S)       
1 61746U 24199M   26063.82172699  .00028523  00000+0  64306-3 0  9991
2 61746  97.3164 296.9605 0007944 307.0775  52.9746 15.43181314121295
TUSUR GO (RS78S)        
1 61782U 24199AZ  26063.78777954  .00156181  00000+0  13262-2 0  9997
2 61782  97.3036 301.3877 0004170 305.5604  54.5268 15.69145325118458
RTU MIREA 1 (RS51S)     
1 61785U 24199BC  26063.83046329  .00054724  00000+0  93946-3 0  9999
2 61785  97.3120 298.2578 0008737 310.5619  49.4872 15.50950454118240
HORIZON (RS59S)         
1 61757U 24199Y   26063.77327522  .00150263  00000+0  12993-2 0  9995
2 61757  97.3083 302.3625 0003149 284.1769  75.9142 15.68723149121652
VIZARD-ION (RS68S)      
1 61749U 24199Q   26063.79408100  .00042015  00000+0  79911-3 0  9999
2 61749  97.3155 298.3599 0006819 301.8889  58.1698 15.48101766121386
LOBACHEVSKY (RS83S)     
1 67284U 25313AN  26063.78339399  .00007925  00000+0  35246-3 0  9994
2 67284  97.4005 140.1602 0011018  14.5801 345.5751 15.21710179 10070
